[{"OBJECT_NAME":"EXCITE","OBJECT_ID":"2018-099BP","EPOCH":"2026-03-09T16:45:15.060672","MEAN_MOTION":15.06036758,"ECCENTRICITY":0.0017626,"INCLINATION":97.4107,"RA_OF_ASC_NODE":111.3606,"ARG_OF_PERICENTER":337.4818,"MEAN_ANOMALY":22.5634,"EPHEMERIS_TYPE":0,"CLASSIFICATION_TYPE":"U","NORAD_CAT_ID":43819,"ELEMENT_SET_NO":999,"REV_AT_EPOCH":39677,"BSTAR":0.00019631388,"MEAN_MOTION_DOT":2.813e-5,"MEAN_MOTION_DDOT":0},{"OBJECT_NAME":"STARLINK-5650","OBJECT_ID":"2023-015AC","EPOCH":"2026-03-09T23:48:54.157536","MEAN_MOTION":15.0253492,"ECCENTRICITY":0.00013819,"INCLINATION":43.0058,"RA_OF_ASC_NODE":323.9882,"ARG_OF_PERICENTER":266.1697,"MEAN_ANOMALY":93.8987,"EPHEMERIS_TYPE":0,"CLASSIFICATION_TYPE":"U","NORAD_CAT_ID":55475,"ELEMENT_SET_NO":999,"REV_AT_EPOCH":17080,"BSTAR":1.3792429e-5,"MEAN_MOTION_DOT":-1.7e-7,"MEAN_MOTION_DDOT":0}]
